OBJECT_NAME,OBJECT_ID,EPOCH,MEAN_MOTION,ECCENTRICITY,INCLINATION,RA_OF_ASC_NODE,ARG_OF_PERICENTER,MEAN_ANOMALY,EPHEMERIS_TYPE,CLASSIFICATION_TYPE,NORAD_CAT_ID,ELEMENT_SET_NO,REV_AT_EPOCH,BSTAR,MEAN_MOTION_DOT,MEAN_MOTION_DDOT
OPS 6582 (TRANSIT 5B-5),1964-083D,2026-06-26T20:23:41.149248,13.57013674,.00396053,90.0757,203.1175,248.5512,285.6438,0,U,965,999,4492,.79201803E-4,.65E-6,0
LES-1,1965-008C,2026-06-26T20:07:11.838144,9.88354840,.00155376,32.1475,21.8447,304.7369,55.1666,0,U,1002,999,21714,-.34610201E-3,.6E-7,0
SOLRAD 7B,1965-016D,2026-06-26T12:06:48.336768,13.94976602,.0018555,70.0775,216.4547,111.5075,248.8011,0,U,1291,999,11800,.42721E-4,.5E-7,0
SECOR 4 (EGRS 4),1965-027B,2026-06-26T20:13:27.914016,12.92667966,.0031317,90.2489,15.7950,171.9854,199.5730,0,U,1315,999,88817,.27230221E-3,.81E-6,0
TIROS 10,1965-051A,2026-06-26T21:34:14.867616,14.41634275,.00561448,98.5048,297.1871,50.7509,309.8643,0,U,1430,999,19731,.51724884E-4,.127E-5,0
ALOUETTE 2,1965-098A,2026-06-26T22:31:34.615776,12.28354421,.13300538,79.8001,268.3554,212.7425,138.4012,0,U,1804,999,68047,.21034232E-3,.642E-5,0
OV3-3,1966-070A,2026-06-26T21:07:56.475264,13.45719685,.10110141,81.3254,322.4576,132.5272,236.5879,0,U,2389,999,60027,.84492005E-3,.19065E-3,0
SECOR 7 (EGRS 7),1966-077B,2026-06-23T17:35:29.133312,8.59615369,.00113444,90.3372,277.5165,52.8831,307.3055,0,U,2411,999,87794,-.70552719E-2,-.13E-6,0
ERS 15,1966-077C,2026-06-25T17:11:14.207424,8.59079403,.00071762,90.3368,277.3329,61.6001,298.5573,0,U,2412,999,39119,0,.2E-7,0
ISIS 1,1969-009A,2026-06-26T20:08:34.754496,11.30434874,.17065746,88.4433,143.3391,228.7206,115.4081,0,U,3669,999,36086,.33479801E-4,.49E-6,0
SECOR 13 (EGRS 13),1969-037B,2026-06-26T22:02:21.329088,13.42977275,.00388612,99.6475,48.9823,226.7208,145.7778,0,U,3891,999,80306,.32764531E-4,-.24E-6,0
ATS 5,1969-069A,2026-06-26T21:39:04.852800,0.99491518,.00052797,0.2670,147.1350,130.1678,76.8672,0,U,4068,999,4642,0,-.244E-5,0
OPS 7613 (P/L 4),1969-082E,2026-06-26T23:22:59.873376,13.95998026,.00182393,70.0153,82.9839,121.2300,250.7469,0,U,4237,999,88767,.47263062E-4,.12E-6,0
OPS 7613 (P/L 1),1969-082B,2026-06-26T19:34:48.980352,13.99199871,.00176119,70.0106,304.3291,47.6252,312.6343,0,U,4256,999,89181,.86107074E-4,.72E-6,0
SHINSEI (MS-F2),1971-080A,2026-06-26T23:10:40.789632,12.74252988,.06395929,32.0538,60.8152,103.7604,263.4962,0,U,5485,999,55050,.67472623E-4,.49E-6,0
PROSPERO (BLACK ARROW),1971-093A,2026-06-26T19:02:53.245248,14.01636541,.05008953,82.0390,282.3959,199.4459,158.6993,0,U,5580,999,74987,.4379932E-3,.2054E-4,0
OPS 7898 (P/L 2),1971-110C,2026-06-26T22:04:43.363776,13.74759644,.00072895,69.9905,342.8334,175.8894,184.2262,0,U,5680,999,34955,.48714066E-4,-.4E-7,0
NOAA 2 (ITOS-D),1972-082A,2026-06-26T22:36:21.479328,12.53215233,.00044062,102.0071,196.6203,147.1185,274.7211,0,U,6235,999,45617,.11908999E-3,-.28E-6,0
OSCAR 7 (AO-7),1974-089B,2026-06-26T22:49:23.257632,12.53698219,.00126437,101.9899,191.2993,112.0577,277.1703,0,U,7530,999,36174,.10246494E-3,-.3E-6,0
TIROS N,1978-096A,2026-06-26T22:28:52.611456,14.19377750,.00097594,98.4528,198.5482,208.0564,152.0088,0,U,11060,999,68013,.74525413E-4,.115E-5,0
PHASE 3B (AO-10),1983-058B,2026-06-23T16:21:57.137184,2.05872578,.60085647,25.9176,218.4895,117.4551,314.9460,0,U,14129,999,29562,0,-.85E-6,0
HILAT,1983-063A,2026-06-26T23:25:19.067232,14.38717366,.00377545,82.0239,151.9261,260.7978,161.3179,0,U,14154,999,24899,.10557625E-3,.342E-5,0
UOSAT 2 (UO-11),1984-021B,2026-06-26T21:16:44.411232,14.90806409,.00084748,97.8061,143.3531,142.5122,217.6689,0,U,14781,999,25857,.12817985E-3,.1206E-4,0
NOAA 9,1984-123A,2026-06-26T22:44:19.925376,14.17070523,.00139919,99.0985,204.8116,325.8939,96.6174,0,U,15427,999,14480,.59723806E-4,.74E-6,0
GEOSAT,1985-021A,2026-06-26T17:39:47.425248,14.39970409,.00014868,108.0418,101.3178,293.4094,66.6892,0,U,15595,999,16414,.73812282E-4,.97E-6,0
EUTELSAT 1-F4 (ECS 4),1987-078B,2026-06-26T12:04:01.133760,0.98687291,.00104816,13.8219,342.0610,45.2224,326.4805,0,U,18351,999,12685,0,0,0
PACSAT (AO-16),1990-005D,2026-06-26T21:29:30.864768,14.33939539,.00102285,98.8517,213.8027,197.3631,341.4376,0,U,20439,999,90332,.60796657E-4,.123E-5,0
LUSAT (LO-19),1990-005G,2026-06-26T21:06:55.461312,14.34125883,.00116842,98.8847,199.9524,172.3680,187.7684,0,U,20442,999,90378,.585086E-4,.117E-5,0
IRS-1B,1991-061A,2026-06-26T23:55:59.604096,13.97876301,.00240162,99.4111,186.1886,338.2475,86.7851,0,U,21688,999,66986,-.10522113E-3,-.196E-5,0
COSMOS 2197,1992-042A,2026-06-26T21:47:53.911104,12.64252134,.00114754,82.5928,222.7229,249.5551,284.0219,0,U,22034,999,56651,.12561963E-3,.34E-6,0
PEGASUS R/B,1993-009C,2026-06-26T21:51:08.295552,14.57981906,.00438701,24.9789,28.8276,211.6628,148.1240,0,U,22491,999,77105,.13197387E-3,.831E-5,0
EYESAT A (AO-27),1993-061C,2026-06-26T22:17:50.266464,14.30944638,.00094857,98.6877,245.3390,74.6935,285.5295,0,U,22825,999,70839,.49902461E-4,.87E-6,0
ITAMSAT (IO-26),1993-061D,2026-06-26T21:44:00.355488,14.31371793,.00098705,98.6824,245.2339,59.7105,300.5053,0,U,22826,999,70870,.48439323E-4,.84E-6,0
RADIO ROSTO (RS15),1994-085A,2026-06-26T20:55:21.863712,11.27583421,.0156272,64.8184,287.5538,2.0858,358.0686,0,U,23439,999,29699,-.28451256E-3,-.53E-6,0
JAS-2 (FO-29),1996-046B,2026-06-26T11:29:38.476320,13.53274769,.03509,98.5232,25.0778,72.3924,291.5216,0,U,24278,999,47442,.18217E-4,-.15E-6,0
FORTE,1997-047A,2026-06-26T21:38:28.219200,14.27948762,.00246267,69.9541,352.0776,265.6088,94.2221,0,U,24920,999,50007,.88875772E-4,.163E-5,0
NOAA 15,1998-030A,2026-06-26T22:20:39.749568,14.27149214,.00094616,98.5063,198.3003,324.8634,35.1923,0,U,25338,999,46268,.56144833E-4,.94E-6,0
TECHSAT 1B (GO-32),1998-043D,2026-06-26T23:14:51.110304,14.24430194,.00015449,99.0071,170.9741,144.7408,215.3873,0,U,25397,999,45272,.46233462E-4,.6E-6,0
ISS (ZARYA),1998-067A,2026-06-26T16:06:15.917184,15.49442433,.00042994,51.6322,253.1475,235.1263,124.9322,0,U,25544,999,57322,.15268082E-3,.8101E-4,0
ORSTED,1999-008B,2026-06-26T23:14:00.075552,14.51815315,.01325997,96.4821,83.2614,154.6263,206.1529,0,U,25635,999,44338,.10688911E-3,.45E-5,0
LANDSAT 7,1999-020A,2026-06-26T22:45:40.747392,14.63924557,.00018013,97.8580,181.1365,85.1729,330.6630,0,U,25682,999,44727,.87085908E-4,.411E-5,0
ORBCOMM FM36,1999-065E,2026-06-26T13:10:46.500384,14.39213101,.00044366,45.0378,115.1408,359.7567,0.3279,0,U,25984,999,38833,.3169223E-3,.849E-5,0
DMSP 5D-3 F15 (USA 147),1999-067A,2026-06-26T23:09:15.120576,14.17567011,.00094533,98.9957,216.6416,340.6780,83.4802,0,U,25991,999,37203,.89641905E-4,.136E-5,0
OPAL (OO-38),2000-004C,2026-06-26T18:42:23.368896,14.37968022,.00359615,100.1910,116.3712,9.1907,350.9925,0,U,26063,999,38466,.59096435E-4,.121E-5,0
IMAGE,2000-017A,2026-06-21T10:12:18.318528,1.68666410,.74289842,94.2324,315.4279,287.3239,9.1864,0,U,26113,999,16157,0,-.86E-6,0
CLUSTER II-FM7 (SAMBA),2000-041A,2026-06-28T07:05:50.148384,0.44873944,.90650285,149.8957,52.7269,270.0741,359.5894,0,U,26410,999,2036,0,.10019E-3,0
CLUSTER II-FM8 (TANGO),2000-045B,2026-06-24T04:39:46.414080,0.44426562,.906457,150.1276,53.1676,270.3044,2.6399,0,U,26464,999,2034,0,.5465E-4,0
MEGSAT-1,2000-057B,2026-06-26T21:48:51.589152,15.05543066,.00425205,64.5504,37.9591,282.5944,77.0420,0,U,26546,999,39912,.19520598E-3,.2693E-4,0
PHASE 3D (AO-40),2000-072B,2026-06-26T20:57:09.756576,1.25588496,.79315493,9.4135,349.4114,181.5155,172.6559,0,U,26609,999,11763,0,-.77E-6,0
ODIN,2001-007A,2026-06-26T13:07:31.417824,15.79292674,.0006273,97.3804,219.1111,135.3308,224.8466,0,U,26702,999,39087,.12112E-2,.222224E-2,0
OMNI-M1,2001-026A,2026-06-26T03:30:26.092512,3.92401945,.00139571,44.8280,243.1988,55.2006,304.9925,0,U,26857,999,20592,0,.2E-7,0
PCSAT (NO-44),2001-043C,2026-06-26T20:49:39.082080,14.31959036,.00060388,67.0492,219.2335,265.2103,94.8309,0,U,26931,999,29183,.64007753E-4,.89E-6,0
PROBA-1,2001-049B,2026-06-26T23:02:51.072576,15.07539288,.00564908,97.9603,186.8336,89.8818,270.8882,0,U,26958,999,34509,.22820823E-3,.3525E-4,0
SPOT 5,2002-021A,2026-06-26T20:51:55.074816,14.54756892,.01282799,97.9842,216.3039,246.0796,112.6921,0,U,27421,999,26425,.72288931E-4,.295E-5,0
FENGYUN 1D,2002-024B,2026-06-26T20:50:28.744800,14.10225554,.00148188,98.9515,228.1547,212.3495,147.6768,0,U,27431,999,24084,.48759776E-4,.42E-6,0
SAUDISAT 1C (SO-50),2002-058C,2026-06-26T22:23:24.650016,14.83066213,.00750442,64.5520,98.8324,260.6581,98.6035,0,U,27607,999,26590,.12577976E-3,.92E-5,0
CORIOLIS,2003-001A,2026-06-26T22:06:44.936352,14.19947318,.00139478,98.7127,184.6575,180.0393,180.0785,0,U,27640,999,21560,.68191508E-4,.101E-5,0
CUTE-1 (CO-55),2003-031E,2026-06-26T22:36:40.042368,14.24341351,.00101264,98.6737,186.3784,150.6275,209.5475,0,U,27844,999,19306,.14335796E-3,.288E-5,0
CUBESAT XI-IV (CO-57),2003-031J,2026-06-26T22:27:05.834016,14.23625736,.00096532,98.6768,186.0767,168.4758,191.6643,0,U,27848,999,19276,.12579737E-3,.243E-5,0
MOZHAETS 4 (RS22),2003-042A,2026-06-27T00:13:57.217728,14.73484597,.00100375,98.3472,2.6464,234.5503,286.8726,0,U,27939,999,21699,.1961459E-3,.1221E-4,0
IRS-P6 (RESOURCESAT-1),2003-046A,2026-06-26T23:48:45.184032,14.36165600,.00631949,98.1906,214.0257,313.7716,160.0850,0,U,28051,999,18193,.76682464E-4,.187E-5,0
SAUDISAT 2,2004-025F,2026-06-26T22:05:04.952544,14.56689066,.00234316,98.5508,178.1537,266.7691,93.0825,0,U,28371,999,16716,.66866562E-4,.25E-5,0
COSMOS 2407,2004-028A,2026-06-26T22:37:30.696096,13.76335440,.00381623,82.9604,67.6089,223.7412,147.0466,0,U,28380,999,10122,.36570199E-4,.51E-6,0
COSMOS 2414,2005-002A,2026-06-26T21:48:21.238560,13.87926977,.00389093,82.9493,36.2920,302.8898,56.8523,0,U,28521,999,8516,.30941482E-4,.52E-6,0
INMARSAT 4-F1,2005-009A,2026-06-26T21:57:18.107424,1.00272664,.00029856,5.1801,42.7737,53.4440,326.2544,0,U,28628,999,7777,0,.39E-6,0
HAMSAT (VO-52),2005-017B,2026-06-26T20:46:13.938240,15.09814363,.0019154,97.9905,201.3459,9.2184,350.9391,0,U,28650,999,14822,.33397913E-3,.5351E-4,0
